[{"OBJECT_NAME":"STARLINK-3178","OBJECT_ID":"2022-010M","EPOCH":"2026-03-09T20:51:43.173216","MEAN_MOTION":15.08831514,"ECCENTRICITY":0.00012524,"INCLINATION":53.2164,"RA_OF_ASC_NODE":278.3148,"ARG_OF_PERICENTER":85.3546,"MEAN_ANOMALY":274.7589,"EPHEMERIS_TYPE":0,"CLASSIFICATION_TYPE":"U","NORAD_CAT_ID":51467,"ELEMENT_SET_NO":999,"REV_AT_EPOCH":22654,"BSTAR":-0.00012084635,"MEAN_MOTION_DOT":-2.21e-5,"MEAN_MOTION_DDOT":0},{"OBJECT_NAME":"STEP 2","OBJECT_ID":"1994-029A","EPOCH":"2026-03-09T19:35:47.124096","MEAN_MOTION":14.90069818,"ECCENTRICITY":0.0082455,"INCLINATION":81.9356,"RA_OF_ASC_NODE":275.268,"ARG_OF_PERICENTER":225.1907,"MEAN_ANOMALY":134.2589,"EPHEMERIS_TYPE":0,"CLASSIFICATION_TYPE":"U","NORAD_CAT_ID":23105,"ELEMENT_SET_NO":999,"REV_AT_EPOCH":70508,"BSTAR":0.00037800709,"MEAN_MOTION_DOT":3.917e-5,"MEAN_MOTION_DDOT":0}]
